{
    "links": {
        "self": "http://www.neowsapp.com/rest/v1/neo/3840788?api_key=iIulBulltgU6a56xZRHN4H3l9WmuAYTsLGpBGhQ2"
    },
    "id": "3840788",
    "neo_reference_id": "3840788",
    "name": "(2019 GJ1)",
    "designation": "2019 GJ1",
    "nasa_jpl_url": "http://ssd.jpl.nasa.gov/sbdb.cgi?sstr=3840788",
    "absolute_magnitude_h": 27.1,
    "estimated_diameter": {
        "kilometers": {
            "estimated_diameter_min": 0.0101054342,
            "estimated_diameter_max": 0.0225964377
        },
        "meters": {
            "estimated_diameter_min": 10.1054341542,
            "estimated_diameter_max": 22.5964377109
        },
        "miles": {
            "estimated_diameter_min": 0.0062792237,
            "estimated_diameter_max": 0.0140407711
        },
        "feet": {
            "estimated_diameter_min": 33.1543125905,
            "estimated_diameter_max": 74.1352966996
        }
    },
    "is_potentially_hazardous_asteroid": false,
    "close_approach_data": [
        {
            "close_approach_date": "2019-03-31",
            "close_approach_date_full": "2019-Mar-31 07:37",
            "epoch_date_close_approach": 1554017820000,
            "relative_velocity": {
                "kilometers_per_second": "7.542927444",
                "kilometers_per_hour": "27154.5387983614",
                "miles_per_hour": "16872.7743994596"
            },
            "miss_distance": {
                "astronomical": "0.0138810729",
                "lunar": "5.3997373581",
                "kilometers": "2076578.939154723",
                "miles": "1290326.3195642574"
            },
            "orbiting_body": "Earth"
        },
        {
            "close_approach_date": "2021-04-15",
            "close_approach_date_full": "2021-Apr-15 11:14",
            "epoch_date_close_approach": 1618485240000,
            "relative_velocity": {
                "kilometers_per_second": "9.3638123421",
                "kilometers_per_hour": "33709.7244315352",
                "miles_per_hour": "20945.9118280281"
            },
            "miss_distance": {
                "astronomical": "0.1042268327",
                "lunar": "40.5442379203",
                "kilometers": "15592112.168766349",
                "miles": "9688489.2404556562"
            },
            "orbiting_body": "Earth"
        }
    ],
    "orbital_data": {
        "orbit_id": "1",
        "orbit_determination_date": "2019-04-05 15:42:04",
        "first_observation_date": "2019-04-03",
        "last_observation_date": "2019-04-05",
        "data_arc_in_days": 2,
        "observations_used": 18,
        "orbit_uncertainty": "8",
        "minimum_orbit_intersection": ".0128077",
        "jupiter_tisserand_invariant": "4.269",
        "epoch_osculation": "2458577.5",
        "eccentricity": ".3729207653848788",
        "semi_major_axis": "1.598119257183619",
        "inclination": "9.811940396723402",
        "ascending_node_longitude": "190.1916202016335",
        "orbital_period": "737.9249660546892",
        "perihelion_distance": "1.00214740061839",
        "perihelion_argument": "344.3096256236244",
        "aphelion_distance": "2.194091113748848",
        "perihelion_time": "2458560.475352167554",
        "mean_anomaly": "8.305550701785492",
        "mean_motion": ".4878544791955441",
        "equinox": "J2000",
        "orbit_class": {
            "orbit_class_type": "APO",
            "orbit_class_description": "Near-Earth asteroid orbits which cross the Earth’s orbit similar to that of 1862 Apollo",
            "orbit_class_range": "a (semi-major axis) > 1.0 AU; q (perihelion) < 1.017 AU"
        }
    },
    "is_sentry_object": false
}